[{"OBJECT_NAME":"STARLINK-2226","OBJECT_ID":"2021-024AK","EPOCH":"2026-03-09T23:40:22.980576","MEAN_MOTION":15.30181181,"ECCENTRICITY":8.791e-5,"INCLINATION":53.1619,"RA_OF_ASC_NODE":331.0466,"ARG_OF_PERICENTER":98.8681,"MEAN_ANOMALY":261.2419,"EPHEMERIS_TYPE":0,"CLASSIFICATION_TYPE":"U","NORAD_CAT_ID":48010,"ELEMENT_SET_NO":999,"REV_AT_EPOCH":27461,"BSTAR":-8.687931e-6,"MEAN_MOTION_DOT":-6.16e-6,"MEAN_MOTION_DDOT":0},{"OBJECT_NAME":"AETHER-2","OBJECT_ID":"2023-174AV","EPOCH":"2026-03-09T17:13:49.792224","MEAN_MOTION":15.33264165,"ECCENTRICITY":0.00086301,"INCLINATION":97.3931,"RA_OF_ASC_NODE":151.9008,"ARG_OF_PERICENTER":139.5247,"MEAN_ANOMALY":220.6639,"EPHEMERIS_TYPE":0,"CLASSIFICATION_TYPE":"U","NORAD_CAT_ID":58299,"ELEMENT_SET_NO":999,"REV_AT_EPOCH":12998,"BSTAR":0.00026165949,"MEAN_MOTION_DOT":8.341e-5,"MEAN_MOTION_DDOT":0}]
